METAR GCFV 141130Z 36016KT 330V030 9999 FEW030 26/17 Q1019=
