TAF GCGM 140800Z 1409/1509 24010KT 9999 FEW020 TX25/1414Z TN18/1506Z TEMPO 1409/1410 VRB05KT=
