METAR GCHI 141100Z 35011KT 320V020 9999 FEW014 24/19 Q1022=
