METAR GCLA 141130Z 02015KT 340V050 9999 FEW025 23/19 Q1022=
