METAR GCLP 141130Z 01024G34KT 330V040 9999 FEW020 SCT025 26/16 Q1020 NOSIG=
