TAF GCRR 140800Z 1409/1509 01018KT 9999 FEW025 TX27/1414Z TN20/1506Z TEMPO 1410/1419 01020G30KT BECMG 1419/1420 35008KT=
