METAR GCRR 141130Z 35019KT 320V020 9999 SCT020 25/18 Q1019=
