TAF GCTS 140800Z 1409/1509 VRB05KT 9999 FEW030 TX28/1414Z TN20/1506Z BECMG 1410/1413 09015KT BECMG 1419/1421 VRB05KT=
