METAR GCTS 141130Z 10016KT 9999 FEW025 26/17 Q1020 WS R08 NOSIG=
