TAF GCXO 141142Z 1411/1509 30016KT 9999 BKN007 TX21/1414Z TN15/1506Z TEMPO 1411/1415 1500 BCFG BKN003 PROB40 TEMPO 1411/1423 30020G30KT TEMPO 1414/1417 SCT010 PROB40 TEMPO 1420/1508 2000 DZ BCFG BKN003=
