SPECI GCXO 141137Z 31016KT 8000 0900NW PRFG SCT000 SCT002 BKN005 19/17 Q1023 NOSIG=
