TAF GEML 140800Z 1409/1509 27013KT CAVOK TX33/1415Z TN24/1505Z TEMPO 1409/1509 27016G30KT=
