METAR GEML 141130Z 27021G35KT 230V310 CAVOK 28/15 Q1011=
