TAF LEAB 141100Z 1412/1421 29014KT CAVOK TEMPO 1412/1421 29017G27KT=
