METAR LEAB 141100Z 29014KT CAVOK 26/06 Q1013 NOSIG=
