METAR LEAG 141130Z AUTO 29009KT 230V020 CAVOK 30/11 Q1012=
