TAF LEAL 141100Z 1412/1512 10010KT CAVOK TX29/1413Z TN21/1506Z TEMPO 1414/1418 18010KT BECMG 1418/1420 VRB04KT BECMG 1505/1508 29009KT=
