TAF LEAM 140800Z 1409/1509 19006KT CAVOK TX29/1413Z TN20/1505Z PROB40 TEMPO 1409/1412 11010KT PROB40 TEMPO 1420/1506 VRB04KT BECMG 1506/1508 24015G25KT=
