TAF LEAO 141100Z 1412/1421 26012KT CAVOK TEMPO 1414/1421 27015G28KT=
