METAR LEAO 141100Z 27007KT 210V340 CAVOK 27/05 Q1014=
