TAF LEAS 140800Z 1409/1509 26009KT 9999 SCT020 BKN060 TX22/1414Z TN13/1505Z PROB30 TEMPO 1409/1415 RA TEMPO 1415/1419 RA TEMPO 1412/1421 28015G27KT PROB30 TEMPO 1506/1509 RA=
