METAR LEAS 141130Z 26013KT 230V300 9999 SCT050 BKN060 22/13 Q1009 NOSIG=
