METAR LEBA 141100Z 23005KT 140V290 CAVOK 29/11 Q1013=
