TAF LEBA 141100Z 1412/1421 26009KT CAVOK=
