METAR LEBB 141130Z 33010KT 280V010 9999 FEW050 SCT060 22/12 Q1010 NOSIG=
