TAF LEBB 141100Z 1412/1512 30008KT 9999 SCT050 TX23/1414Z TN13/1505Z TEMPO 1415/1424 RA PROB40 TEMPO 1509/1512 RA=
