TAF LEBG 141100Z 1412/1421 22015KT 9999 SCT025 TEMPO 1412/1418 24018G32KT PROB40 TEMPO 1412/1418 FEW025TCU TEMPO 1415/1417 RA=
