TAF LEBL 141100Z 1412/1512 21012KT 9999 FEW020 TX24/1412Z TN18/1506Z PROB30 TEMPO 1412/1415 21015G25KT BECMG 1420/1422 21006KT BECMG 1422/1501 07010KT=
