METAR LEBR 141130Z AUTO 32012KT 280V360 9999 NCD 23/07 Q1010=
