TAF LEBR 141100Z 1412/1421 32008KT 9999 SCT040=
