TAF LEBZ 141100Z 1412/1512 27008KT CAVOK TX30/1415Z TN15/1505Z PROB40 TEMPO 1413/1420 27015G25KT PROB30 TEMPO 1500/1509 BKN014=
