TAF LECH 141100Z 1412/1512 14010KT 9999 FEW040 TX29/1412Z TN15/1506Z BECMG 1418/1420 VRB04KT BECMG 1507/1510 13010KT=
