METAR LECH 141130Z 13013KT CAVOK 26/10 Q1009=
