SPECI LECO 141147Z 25003KT 180V350 3000 RA SCT015 BKN022 17/16 Q1011 NOSIG=
