TAF LECO 140800Z 1409/1509 22009KT 9999 FEW020 BKN050 TX20/1414Z TN13/1504Z PROB40 TEMPO 1409/1415 RA PROB30 TEMPO 1415/1501 RA TEMPO 1501/1509 RA PROB40 TEMPO 1409/1421 24015G25KT TEMPO 1412/1421 28015KT=
