METAR LECV 141100Z 26008KT 220V010 9999 FEW068 23/06 Q1014=
