METAR LEEC 141100Z 27005KT 220V360 CAVOK 30/07 Q1013=
