TAF LEEC 141100Z 1412/1421 29009KT CAVOK=
