METAR LEGA 141100Z 34008KT CAVOK 30/02 Q1014=
