TAF LEGA 141100Z 1412/1421 30009KT CAVOK=
