TAF LEGE 141100Z 1412/1512 18013KT 9999 SCT035 TX25/1414Z TN15/1506Z TEMPO 1412/1502 SCT025TCU BKN050 TEMPO 1416/1422 10007KT BECMG 1418/1420 VRB04KT TEMPO 1422/1509 36009KT=
