TAF LEGR 140800Z 1409/1509 28009KT CAVOK TX36/1415Z TN17/1505Z=
