METAR LEGR 141130Z VRB03KT CAVOK 31/02 Q1013=
