TAF LEGT 141100Z 1412/1421 27014KT CAVOK TEMPO 1412/1420 25018G28KT=
