METAR LEGT 141100Z 28010G20KT 250V360 9999 FEW055 25/06 Q1013=
