METAR LEHC 141100Z 29017KT 250V320 9999 FEW050 22/02 Q1010=
