TAF LEHC 141037Z 1410/1509 30015KT 9999 FEW050 TX27/1415Z TN14/1505Z TEMPO 1410/1416 29020G32KT TEMPO 1421/1508 VRB04KT=
