TAF LEIB 140800Z 1409/1509 04014KT 9999 FEW020 TX28/1413Z TN20/1505Z BECMG 1412/1415 09010KT BECMG 1419/1421 20010KT=
