METAR LEIB 141130Z VRB08KT CAVOK 28/12 Q1009 NOSIG=
