METAR LEJR 141130Z 33006KT 280V050 CAVOK 31/10 Q1014=
