TAF LEJR 141100Z 1412/1512 29009KT CAVOK TX33/1415Z TN17/1505Z=
