TAF LELC 141100Z 1412/1512 13010KT CAVOK TX28/1512Z TN23/1505Z BECMG 1415/1418 20010KT BECMG 1420/1424 VRB04KT BECMG 1508/1510 14012KT=
