TAF LELL 140800Z 1409/1509 26008KT 9999 FEW030 TX27/1413Z TN16/1505Z BECMG 1411/1413 13012KT BECMG 1417/1420 04005KT=
