METAR LELL 141130Z 26010KT 220V300 9999 FEW070 29/08 Q1007=
