TAF LELN 141100Z 1412/1421 26015KT 9999 FEW030 BKN040 TEMPO 1412/1420 27018G32KT PROB30 TEMPO 1412/1421 SHRA FEW035TCU=
