METAR LELN 141100Z 26015KT 210V290 9999 FEW027 SCT045 16/08 Q1013=
