METAR LELO 141100Z 23007KT 170V340 9999 SCT050 23/08 Q1011=
