TAF LELO 141100Z 1412/1421 29010KT 9999 FEW030 SCT060 TEMPO 1412/1421 29015G32KT PROB30 TEMPO 1418/1420 SHRA BKN045TCU=
