METAR LEMD 141130Z 25012KT 200V280 CAVOK 27/07 Q1012 NOSIG=
