TAF LEMG 141100Z 1412/1512 30011KT CAVOK TX36/1413Z TN23/1505Z PROB40 1413/1419 13008KT=
