METAR LEMG 141130Z 29013KT 260V330 CAVOK 35/08 Q1010 NOSIG=
