TAF LEMH 140800Z 1409/1509 09012KT 9999 SCT025 TX25/1413Z TN19/1505Z BECMG 1414/1417 18012KT PROB30 TEMPO 1500/1507 3000 BR BKN005=
