METAR LEMH 141130Z 09010KT 060V120 9999 BKN033 22/15 Q1009=
