TAF LEMO 141100Z 1412/1421 28010KT CAVOK=
