METAR LEMO 141100Z 29004KT CAVOK 30/10 Q1013 NOSIG=
