TAF LEPA 141100Z 1412/1512 22010KT 9999 FEW018 TX29/1412Z TN20/1506Z PROB30 TEMPO 1412/1415 4000 SHRA BKN018 FEW020TCU BECMG 1420/1422 VRB04KT BECMG 1507/1510 21010KT=
