METAR LEPA 141130Z 18007G18KT 130V240 9999 FEW025 SCT036 28/19 Q1008 NOSIG=
