TAF LEPP 140800Z 1409/1509 35007KT 9999 SCT030 TX23/1414Z TN12/1505Z PROB30 TEMPO 1419/1503 RA=
