TAF LERI 141100Z 1412/1421 15010KT CAVOK BECMG 1418/1420 VRB03KT=
