METAR LERI 141100Z 08006KT 020V130 CAVOK 33/08 Q1009 NOSIG=
