METAR LERS 141130Z 25016KT 220V290 CAVOK 29/06 Q1007=
