TAF LERS 140837Z 1409/1509 30012KT 9999 FEW025 TX32/1413Z TN18/1505Z TEMPO 1409/1415 28016G28KT TEMPO 1415/1421 22012KT BECMG 1421/1424 VRB03KT=
