METAR LERT 141100Z 28009KT 250V310 CAVOK 25/16 Q1014 NOSIG=
