TAF LERT 141100Z 1412/1421 30012KT CAVOK=
