METAR LESA 141130Z 28013KT 250V320 9999 FEW040 22/09 Q1014=
