TAF LESO 141100Z 1412/1512 27008KT 9999 SCT040 TX22/1415Z TN15/1505Z PROB30 TEMPO 1414/1424 RA=
