SPECI LEST 141152Z 26011G21KT 200V290 6000 1900S RADZ BKN004 BKN009 OVC018 15/14 Q1012 NOSIG=
