TAF LEST 141100Z 1412/1512 23009KT 8000 BKN018 TX17/1415Z TN11/1506Z TEMPO 1412/1418 3000 RADZ BKN010 TEMPO 1500/1512 3000 RA BKN010 PROB40 TEMPO 1500/1509 0800 BCFG BKN005=
