METAR LETL 141130Z AUTO 21005KT 150V310 9999 BKN080 23/02 Q1012=
