TAF LETO 141100Z 1412/1512 26012KT 9999 SCT055 TX29/1414Z TN12/1505Z TEMPO 1412/1420 25018G28KT PROB30 TEMPO 1509/1512 SHRA FEW035TCU=
