METAR LETU 141130Z AUTO 35007KT 300V060 9999 NSC 24/08 Q1010=
