METAR LEVC 141130Z 14013KT 9999 FEW030 27/15 Q1009 NOSIG=
