METAR LEVD 141130Z 25013KT 210V280 9999 SCT040 18/09 Q1013=
