TAF LEVD 141100Z 1412/1512 25012KT 9999 SCT025 TX22/1415Z TN09/1505Z TEMPO 1412/1420 26015G30KT TEMPO 1509/1512 SCT016 SCT023CB TEMPO 1510/1512 SHRA BKN015CB OVC031=
