METAR LEVS 141130Z 26009KT 210V340 CAVOK 27/06 Q1012=
