METAR LEVT 141130Z 29007KT 240V330 9999 SCT055 BKN072 22/08 Q1011=
