TAF LEVX 141100Z 1412/1512 21009KT 6000 BKN010 BKN020 TX17/1415Z TN12/1506Z TEMPO 1412/1418 3000 RADZ PROB40 TEMPO 1412/1424 SCT010 PROB30 TEMPO 1418/1424 RADZ TEMPO 1500/1512 3000 RA PROB40 TEMPO 1500/1509 0600 BCFG BKN002=
