METAR LEXJ 141130Z 32007KT 250V010 9999 FEW039 SCT078 22/11 Q1010=
