TAF LEXJ 140800Z 1409/1509 28008KT 9999 SCT040 TX22/1414Z TN14/1504Z TEMPO 1418/1424 RA=
