TAF LEZG 141100Z 1412/1512 31012KT 9999 FEW060 TX29/1415Z TN17/1506Z TEMPO 1412/1417 VRB04KT=
