METAR LEZG 141130Z 33007G17KT 220V030 9999 FEW045 23/09 Q1010=
