METAR LEZL 141130Z 28006KT 220V360 CAVOK 29/07 Q1013 NOSIG=
