TAF LEZL 140800Z 1409/1509 35006KT CAVOK TX36/1415Z TN20/1505Z BECMG 1412/1416 26011KT BECMG 1422/1424 32006KT=
